[Satellite]
VERSION=1.1
NAME=NOVA 3
NICKNAME=NOVA 3
TLE1=1 15362U 84110A   15053.16680116  .00000092  00000-0  19823-3 0  9991
TLE2=2 15362  90.0247  51.8916 0032803  47.9584  81.4895 13.22670109465500
